{
"type": "FeatureCollection",
"name": "geocercas_distribuidoras",
"crs": { "type": "name", "properties": { "name": "urn:ogc:def:crs:OGC:1.3:CRS84" } },
"features": [
{ "type": "Feature", "properties": { "fid": 103, "Grupo": "Distribuidora", "Ruta": "Bocadeli Quezaltepeque", "Division": "SV Centro" }, "geometry": { "type": "MultiPolygon", "coordinates": [ [ [ [ -89.315580999689999, 13.811675000286, 0.0 ], [ -89.315069000204005, 13.811938000204, 0.0 ], [ -89.315398000311006, 13.812551999818, 0.0 ], [ -89.315907999600995, 13.812314999803, 0.0 ], [ -89.315580999689999, 13.811675000286, 0.0 ] ] ] ] } },
{ "type": "Feature", "properties": { "fid": 102, "Grupo": "Distribuidora", "Ruta": "Bocadeli Soyapango", "Division": "SV Centro" }, "geometry": { "type": "MultiPolygon", "coordinates": [ [ [ [ -89.147562235602052, 13.682561118550439, 0.0 ], [ -89.144380886797862, 13.685033238530023, 0.0 ], [ -89.144632265202972, 13.685697144056942, 0.0 ], [ -89.14395868218358, 13.686083971616775, 0.0 ], [ -89.143965626338286, 13.686613834381639, 0.0 ], [ -89.143985995859239, 13.687116708126116, 0.0 ], [ -89.14866450444697, 13.686878315518994, 0.0 ], [ -89.148584415194478, 13.683849358985487, 0.0 ], [ -89.147562235602052, 13.682561118550439, 0.0 ] ] ] ] } },
{ "type": "Feature", "properties": { "fid": 44, "Grupo": "Distribuidora", "Ruta": "Bocadeli Usulutan", "Division": "SV Oriente" }, "geometry": { "type": "MultiPolygon", "coordinates": [ [ [ [ -88.440108999751999, 13.343275000199, 0.0 ], [ -88.440181999944002, 13.342685999804001, 0.0 ], [ -88.439646999730996, 13.342623000041, 0.0 ], [ -88.439555999706002, 13.343194000232, 0.0 ], [ -88.440108999751999, 13.343275000199, 0.0 ] ] ] ] } },
{ "type": "Feature", "properties": { "fid": 43, "Grupo": "Distribuidora", "Ruta": "Bocadeli San Miguel", "Division": "SV Oriente" }, "geometry": { "type": "MultiPolygon", "coordinates": [ [ [ [ -88.214770000231994, 13.500651000145, 0.0 ], [ -88.215057000100998, 13.499233000123001, 0.0 ], [ -88.213816000240996, 13.499049999788999, 0.0 ], [ -88.213600999703999, 13.500267000228, 0.0 ], [ -88.214770000231994, 13.500651000145, 0.0 ] ] ] ] } },
{ "type": "Feature", "properties": { "fid": 2, "Grupo": "Distribuidora", "Ruta": "Bocadeli Sonsonate", "Division": "SV Occidente" }, "geometry": { "type": "MultiPolygon", "coordinates": [ [ [ [ -89.716200999981993, 13.722731000164, 0.0 ], [ -89.716253704517925, 13.722243034494515, 0.0 ], [ -89.715773552952868, 13.7222018197679, 0.0 ], [ -89.715722034544612, 13.722681971332957, 0.0 ], [ -89.716200999981993, 13.722731000164, 0.0 ] ] ] ] } },
{ "type": "Feature", "properties": { "fid": 1, "Grupo": "Distribuidora", "Ruta": "Bocadeli Santa Ana", "Division": "SV Occidente" }, "geometry": { "type": "MultiPolygon", "coordinates": [ [ [ [ -89.579289778472855, 13.981225639800352, 0.0 ], [ -89.578837756620146, 13.981157292853549, 0.0 ], [ -89.578738342879333, 13.981840762321571, 0.0 ], [ -89.579224538205466, 13.981741309388935, 0.0 ], [ -89.579289778472855, 13.981225639800352, 0.0 ] ] ] ] } },
{ "type": "Feature", "properties": { "fid": 105, "Grupo": "Distribuidora", "Ruta": "Bocadeli Ilobasco", "Division": "SV Centro" }, "geometry": { "type": "MultiPolygon", "coordinates": [ [ [ [ -88.866921584976382, 13.80055294122428, 0.0 ], [ -88.866995468439796, 13.800187066357591, 0.0 ], [ -88.866505471508901, 13.7999086191984, 0.0 ], [ -88.866344377886549, 13.80025787654245, 0.0 ], [ -88.866921584976382, 13.80055294122428, 0.0 ] ] ] ] } },
{ "type": "Feature", "properties": { "fid": 104, "Grupo": "Distribuidora", "Ruta": "Bocadeli Chalatenango", "Division": "SV Centro" }, "geometry": { "type": "MultiPolygon", "coordinates": [ [ [ [ -89.106843019619689, 14.09560834817602, 0.0 ], [ -89.106474410023353, 14.095298881599801, 0.0 ], [ -89.106096811082352, 14.095823284782449, 0.0 ], [ -89.106166254161849, 14.09587725051432, 0.0 ], [ -89.106531692189208, 14.09580252774867, 0.0 ], [ -89.106710269419594, 14.095718961019401, 0.0 ], [ -89.106843019619689, 14.09560834817602, 0.0 ] ] ] ] } }
]
}
